{
  "type": "FeatureCollection",
  "features": [
    {
      "type": "Feature",
      "properties": {
        "norad_id": 34079,
        "name": "IRIDIUM 33 DEB",
        "group": "iridium-33-debris",
        "lat": -32.45601559326971,
        "lon": 11.101367763124452,
        "alt_km": 624.2954748750481,
        "timestamp": "2025-12-02T07:10:09.500890+00:00",
        "meta_object_name": "IRIDIUM 33 DEB",
        "meta_object_id": "1997-051CN",
        "meta_epoch": "2025-12-01T20:46:35.598720",
        "meta_mean_motion": 14.83079582,
        "meta_eccentricity": 0.0006838,
        "meta_inclination": 86.379,
        "meta_ra_of_asc_node": 13.6062,
        "meta_arg_of_pericenter": 40.6061,
        "meta_mean_anomaly": 136.576,
        "meta_ephemeris_type": 0,
        "meta_classification_type": "U",
        "meta_norad_cat_id": 34079,
        "meta_element_set_no": 999,
        "meta_rev_at_epoch": 88816,
        "meta_bstar": 0.0015204,
        "meta_mean_motion_dot": 0.00012414,
        "meta_mean_motion_ddot": 0,
        "tle_line1": "1 34079U 97051CN  25335.86568980  .00012414  00000+0  15204-2 0  9998",
        "tle_line2": "2 34079  86.3790  13.6062 0006838  40.6061 136.5760 14.83079582888164"
      },
      "geometry": {
        "type": "Point",
        "coordinates": [
          11.101367763124452,
          -32.45601559326971
        ]
      }
    },
    {
      "type": "Feature",
      "properties": {
        "norad_id": 34088,
        "name": "IRIDIUM 33 DEB",
        "group": "iridium-33-debris",
        "lat": 48.74527747835334,
        "lon": -148.6130606222885,
        "alt_km": 591.6822056695783,
        "timestamp": "2025-12-02T07:10:09.500902+00:00",
        "meta_object_name": "IRIDIUM 33 DEB",
        "meta_object_id": "1997-051CX",
        "meta_epoch": "2025-12-01T16:38:18.786336",
        "meta_mean_motion": 14.90512299,
        "meta_eccentricity": 0.0005101,
        "meta_inclination": 86.3866,
        "meta_ra_of_asc_node": 35.796,
        "meta_arg_of_pericenter": 218.5802,
        "meta_mean_anomaly": 265.9168,
        "meta_ephemeris_type": 0,
        "meta_classification_type": "U",
        "meta_norad_cat_id": 34088,
        "meta_element_set_no": 999,
        "meta_rev_at_epoch": 88577,
        "meta_bstar": 0.0025052,
        "meta_mean_motion_dot": 0.00024547,
        "meta_mean_motion_ddot": 0,
        "tle_line1": "1 34088U 97051CX  25335.69327299  .00024547  00000+0  25052-2 0  9997",
        "tle_line2": "2 34088  86.3866  35.7960 0005101 218.5802 265.9168 14.90512299885779"
      },
      "geometry": {
        "type": "Point",
        "coordinates": [
          -148.6130606222885,
          48.74527747835334
        ]
      }
    },
    {
      "type": "Feature",
      "properties": {
        "norad_id": 34091,
        "name": "IRIDIUM 33 DEB",
        "group": "iridium-33-debris",
        "lat": -35.715780803822554,
        "lon": 68.9736470739771,
        "alt_km": 611.3298390745404,
        "timestamp": "2025-12-02T07:10:09.500913+00:00",
        "meta_object_name": "IRIDIUM 33 DEB",
        "meta_object_id": "1997-051DA",
        "meta_epoch": "2025-12-01T18:21:08.453088",
        "meta_mean_motion": 14.80452888,
        "meta_eccentricity": 0.0032842,
        "meta_inclination": 86.342,
        "meta_ra_of_asc_node": 71.854,
        "meta_arg_of_pericenter": 332.8724,
        "meta_mean_anomaly": 27.078,
        "meta_ephemeris_type": 0,
        "meta_classification_type": "U",
        "meta_norad_cat_id": 34091,
        "meta_element_set_no": 999,
        "meta_rev_at_epoch": 87704,
        "meta_bstar": 0.0048913,
        "meta_mean_motion_dot": 0.0003792,
        "meta_mean_motion_ddot": 0,
        "tle_line1": "1 34091U 97051DA  25335.76468117  .00037920  00000+0  48913-2 0  9994",
        "tle_line2": "2 34091  86.3420  71.8540 0032842 332.8724  27.0780 14.80452888877043"
      },
      "geometry": {
        "type": "Point",
        "coordinates": [
          68.9736470739771,
          -35.715780803822554
        ]
      }
    },
    {
      "type": "Feature",
      "properties": {
        "norad_id": 34097,
        "name": "IRIDIUM 33 DEB",
        "group": "iridium-33-debris",
        "lat": 22.186082833620237,
        "lon": -175.5363695186265,
        "alt_km": 807.1403075436356,
        "timestamp": "2025-12-02T07:10:09.500924+00:00",
        "meta_object_name": "IRIDIUM 33 DEB",
        "meta_object_id": "1997-051DG",
        "meta_epoch": "2025-12-01T12:01:47.968896",
        "meta_mean_motion": 14.34641862,
        "meta_eccentricity": 0.0083867,
        "meta_inclination": 86.2013,
        "meta_ra_of_asc_node": 6.3679,
        "meta_arg_of_pericenter": 38.6075,
        "meta_mean_anomaly": 322.1076,
        "meta_ephemeris_type": 0,
        "meta_classification_type": "U",
        "meta_norad_cat_id": 34097,
        "meta_element_set_no": 999,
        "meta_rev_at_epoch": 86958,
        "meta_bstar": 0.0014483124,
        "meta_mean_motion_dot": 4.279e-05,
        "meta_mean_motion_ddot": 0,
        "tle_line1": "1 34097U 97051DG  25335.50124964  .00004279  00000+0  14483-2 0  9997",
        "tle_line2": "2 34097  86.2013   6.3679 0083867  38.6075 322.1076 14.34641862869583"
      },
      "geometry": {
        "type": "Point",
        "coordinates": [
          -175.5363695186265,
          22.186082833620237
        ]
      }
    },
    {
      "type": "Feature",
      "properties": {
        "norad_id": 34145,
        "name": "IRIDIUM 33 DEB",
        "group": "iridium-33-debris",
        "lat": 35.68435275186343,
        "lon": 154.45038084884027,
        "alt_km": 711.3906558011677,
        "timestamp": "2025-12-02T07:10:09.500934+00:00",
        "meta_object_name": "IRIDIUM 33 DEB",
        "meta_object_id": "1997-051DY",
        "meta_epoch": "2025-12-01T10:31:25.129056",
        "meta_mean_motion": 14.42165387,
        "meta_eccentricity": 0.00551446,
        "meta_inclination": 86.2119,
        "meta_ra_of_asc_node": 337.5605,
        "meta_arg_of_pericenter": 129.8004,
        "meta_mean_anomaly": 230.807,
        "meta_ephemeris_type": 0,
        "meta_classification_type": "U",
        "meta_norad_cat_id": 34145,
        "meta_element_set_no": 999,
        "meta_rev_at_epoch": 87475,
        "meta_bstar": 0.0011229565,
        "meta_mean_motion_dot": 3.783e-05,
        "meta_mean_motion_ddot": 0,
        "tle_line1": "1 34145U 97051DY  25335.43848529  .00003783  00000+0  11230-2 0  9999",
        "tle_line2": "2 34145  86.2119 337.5605 0055144 129.8004 230.8070 14.42165387874750"
      },
      "geometry": {
        "type": "Point",
        "coordinates": [
          154.45038084884027,
          35.68435275186343
        ]
      }
    },
    {
      "type": "Feature",
      "properties": {
        "norad_id": 34146,
        "name": "IRIDIUM 33 DEB",
        "group": "iridium-33-debris",
        "lat": -67.60536622389186,
        "lon": -176.5122025940313,
        "alt_km": 719.1141848322732,
        "timestamp": "2025-12-02T07:10:09.500945+00:00",
        "meta_object_name": "IRIDIUM 33 DEB",
        "meta_object_id": "1997-051DZ",
        "meta_epoch": "2025-12-01T12:29:48.186240",
        "meta_mean_motion": 14.48922256,
        "meta_eccentricity": 0.00249505,
        "meta_inclination": 86.2841,
        "meta_ra_of_asc_node": 354.7569,
        "meta_arg_of_pericenter": 261.9495,
        "meta_mean_anomaly": 250.2765,
        "meta_ephemeris_type": 0,
        "meta_classification_type": "U",
        "meta_norad_cat_id": 34146,
        "meta_element_set_no": 999,
        "meta_rev_at_epoch": 87944,
        "meta_bstar": 0.0011238523,
        "meta_mean_motion_dot": 4.289e-05,
        "meta_mean_motion_ddot": 0,
        "tle_line1": "1 34146U 97051DZ  25335.52069660  .00004289  00000+0  11239-2 0  9992",
        "tle_line2": "2 34146  86.2841 354.7569 0024950 261.9495 250.2765 14.48922256879446"
      },
      "geometry": {
        "type": "Point",
        "coordinates": [
          -176.5122025940313,
          -67.60536622389186
        ]
      }
    },
    {
      "type": "Feature",
      "properties": {
        "norad_id": 34159,
        "name": "IRIDIUM 33 DEB",
        "group": "iridium-33-debris",
        "lat": -2.424972676329913,
        "lon": 52.537565880991416,
        "alt_km": 751.0761434688548,
        "timestamp": "2025-12-02T07:10:09.500955+00:00",
        "meta_object_name": "IRIDIUM 33 DEB",
        "meta_object_id": "1997-051EN",
        "meta_epoch": "2025-12-01T14:29:07.196928",
        "meta_mean_motion": 14.38447041,
        "meta_eccentricity": 0.00266116,
        "meta_inclination": 86.3516,
        "meta_ra_of_asc_node": 52.9886,
        "meta_arg_of_pericenter": 326.7615,
        "meta_mean_anomaly": 33.191,
        "meta_ephemeris_type": 0,
        "meta_classification_type": "U",
        "meta_norad_cat_id": 34159,
        "meta_element_set_no": 999,
        "meta_rev_at_epoch": 87799,
        "meta_bstar": 0.00044184185,
        "meta_mean_motion_dot": 1.372e-05,
        "meta_mean_motion_ddot": 0,
        "tle_line1": "1 34159U 97051EN  25335.60355552  .00001372  00000+0  44184-3 0  9999",
        "tle_line2": "2 34159  86.3516  52.9886 0026611 326.7615  33.1910 14.38447041877990"
      },
      "geometry": {
        "type": "Point",
        "coordinates": [
          52.537565880991416,
          -2.424972676329913
        ]
      }
    }
  ]
}